{
  "type": "FeatureCollection",
  "features": [
    {
      "type": "Feature",
      "properties": {
        "norad_id": 34036,
        "name": "COSMOS 2251 DEB",
        "group": "cosmos-2251-debris",
        "lat": 73.96068498123272,
        "lon": -109.82526687209837,
        "alt_km": 577.6363863931274,
        "timestamp": "2025-12-09T14:52:26.555983+00:00",
        "meta_object_name": "COSMOS 2251 DEB",
        "meta_object_id": "1993-036HX",
        "meta_epoch": "2025-12-08T22:24:02.971008",
        "meta_mean_motion": 14.94473801,
        "meta_eccentricity": 0.0013483,
        "meta_inclination": 74.0203,
        "meta_ra_of_asc_node": 156.9466,
        "meta_arg_of_pericenter": 190.5423,
        "meta_mean_anomaly": 169.5481,
        "meta_ephemeris_type": 0,
        "meta_classification_type": "U",
        "meta_norad_cat_id": 34036,
        "meta_element_set_no": 999,
        "meta_rev_at_epoch": 88513,
        "meta_bstar": 0.0043012,
        "meta_mean_motion_dot": 0.00046776,
        "meta_mean_motion_ddot": 0,
        "tle_line1": "1 34036U 93036HX  25342.93336772  .00046776  00000+0  43012-2 0  9994",
        "tle_line2": "2 34036  74.0203 156.9466 0013483 190.5423 169.5481 14.94473801885134"
      },
      "geometry": {
        "type": "Point",
        "coordinates": [
          -109.82526687209837,
          73.96068498123272
        ]
      }
    },
    {
      "type": "Feature",
      "properties": {
        "norad_id": 34037,
        "name": "COSMOS 2251 DEB",
        "group": "cosmos-2251-debris",
        "lat": 67.8592685158908,
        "lon": -168.4959852801419,
        "alt_km": 731.9888179848576,
        "timestamp": "2025-12-09T14:52:26.555994+00:00",
        "meta_object_name": "COSMOS 2251 DEB",
        "meta_object_id": "1993-036HY",
        "meta_epoch": "2025-12-09T06:01:07.787712",
        "meta_mean_motion": 14.34651737,
        "meta_eccentricity": 0.00521129,
        "meta_inclination": 74.0522,
        "meta_ra_of_asc_node": 56.828,
        "meta_arg_of_pericenter": 107.9025,
        "meta_mean_anomaly": 252.782,
        "meta_ephemeris_type": 0,
        "meta_classification_type": "U",
        "meta_norad_cat_id": 34037,
        "meta_element_set_no": 999,
        "meta_rev_at_epoch": 87667,
        "meta_bstar": 0.00082198835,
        "meta_mean_motion_dot": 2.336e-05,
        "meta_mean_motion_ddot": 0,
        "tle_line1": "1 34037U 93036HY  25343.25078458  .00002336  00000+0  82199-3 0  9999",
        "tle_line2": "2 34037  74.0522  56.8280 0052112 107.9025 252.7820 14.34651737876674"
      },
      "geometry": {
        "type": "Point",
        "coordinates": [
          -168.4959852801419,
          67.8592685158908
        ]
      }
    },
    {
      "type": "Feature",
      "properties": {
        "norad_id": 34040,
        "name": "COSMOS 2251 DEB",
        "group": "cosmos-2251-debris",
        "lat": 18.011688604367457,
        "lon": 76.38734187201743,
        "alt_km": 753.492975096322,
        "timestamp": "2025-12-09T14:52:26.556004+00:00",
        "meta_object_name": "COSMOS 2251 DEB",
        "meta_object_id": "1993-036JB",
        "meta_epoch": "2025-12-08T15:58:46.460928",
        "meta_mean_motion": 13.68368017,
        "meta_eccentricity": 0.0342916,
        "meta_inclination": 73.9558,
        "meta_ra_of_asc_node": 72.5944,
        "meta_arg_of_pericenter": 26.8037,
        "meta_mean_anomaly": 335.0346,
        "meta_ephemeris_type": 0,
        "meta_classification_type": "U",
        "meta_norad_cat_id": 34040,
        "meta_element_set_no": 999,
        "meta_rev_at_epoch": 83544,
        "meta_bstar": 0.00064012978,
        "meta_mean_motion_dot": 8.03e-06,
        "meta_mean_motion_ddot": 0,
        "tle_line1": "1 34040U 93036JB  25342.66581552  .00000803  00000+0  64013-3 0  9993",
        "tle_line2": "2 34040  73.9558  72.5944 0342916  26.8037 335.0346 13.68368017835443"
      },
      "geometry": {
        "type": "Point",
        "coordinates": [
          76.38734187201743,
          18.011688604367457
        ]
      }
    },
    {
      "type": "Feature",
      "properties": {
        "norad_id": 34045,
        "name": "COSMOS 2251 DEB",
        "group": "cosmos-2251-debris",
        "lat": 21.91000273580073,
        "lon": 129.93082880821663,
        "alt_km": 785.5727814304319,
        "timestamp": "2025-12-09T14:52:26.556014+00:00",
        "meta_object_name": "COSMOS 2251 DEB",
        "meta_object_id": "1993-036JG",
        "meta_epoch": "2025-12-09T07:59:42.138240",
        "meta_mean_motion": 14.34066105,
        "meta_eccentricity": 0.00255445,
        "meta_inclination": 74.0387,
        "meta_ra_of_asc_node": 317.065,
        "meta_arg_of_pericenter": 41.5309,
        "meta_mean_anomaly": 76.1176,
        "meta_ephemeris_type": 0,
        "meta_classification_type": "U",
        "meta_norad_cat_id": 34045,
        "meta_element_set_no": 999,
        "meta_rev_at_epoch": 87984,
        "meta_bstar": 0.0001825397,
        "meta_mean_motion_dot": 4.86e-06,
        "meta_mean_motion_ddot": 0,
        "tle_line1": "1 34045U 93036JG  25343.33312660  .00000486  00000+0  18254-3 0  9998",
        "tle_line2": "2 34045  74.0387 317.0650 0025544  41.5309  76.1176 14.34066105879845"
      },
      "geometry": {
        "type": "Point",
        "coordinates": [
          129.93082880821663,
          21.91000273580073
        ]
      }
    },
    {
      "type": "Feature",
      "properties": {
        "norad_id": 34046,
        "name": "COSMOS 2251 DEB",
        "group": "cosmos-2251-debris",
        "lat": 5.47128388544189,
        "lon": 17.86929024142496,
        "alt_km": 743.3284700849345,
        "timestamp": "2025-12-09T14:52:26.556025+00:00",
        "meta_object_name": "COSMOS 2251 DEB",
        "meta_object_id": "1993-036JH",
        "meta_epoch": "2025-12-09T03:32:22.410240",
        "meta_mean_motion": 14.4642557,
        "meta_eccentricity": 0.00746021,
        "meta_inclination": 74.0395,
        "meta_ra_of_asc_node": 17.1798,
        "meta_arg_of_pericenter": 101.6744,
        "meta_mean_anomaly": 326.8052,
        "meta_ephemeris_type": 0,
        "meta_classification_type": "U",
        "meta_norad_cat_id": 34046,
        "meta_element_set_no": 999,
        "meta_rev_at_epoch": 87774,
        "meta_bstar": 0.0013086151,
        "meta_mean_motion_dot": 4.844e-05,
        "meta_mean_motion_ddot": 0,
        "tle_line1": "1 34046U 93036JH  25343.14748160  .00004844  00000+0  13086-2 0  9995",
        "tle_line2": "2 34046  74.0395  17.1798 0074602 101.6744 326.8052 14.46425570877749"
      },
      "geometry": {
        "type": "Point",
        "coordinates": [
          17.86929024142496,
          5.47128388544189
        ]
      }
    },
    {
      "type": "Feature",
      "properties": {
        "norad_id": 34050,
        "name": "COSMOS 2251 DEB",
        "group": "cosmos-2251-debris",
        "lat": 73.8416691158068,
        "lon": 95.30708678716164,
        "alt_km": 744.3383161944703,
        "timestamp": "2025-12-09T14:52:26.556035+00:00",
        "meta_object_name": "COSMOS 2251 DEB",
        "meta_object_id": "1993-036JM",
        "meta_epoch": "2025-12-09T04:26:32.993376",
        "meta_mean_motion": 13.96171206,
        "meta_eccentricity": 0.02145812,
        "meta_inclination": 74.0886,
        "meta_ra_of_asc_node": 16.1501,
        "meta_arg_of_pericenter": 81.3818,
        "meta_mean_anomaly": 341.7611,
        "meta_ephemeris_type": 0,
        "meta_classification_type": "U",
        "meta_norad_cat_id": 34050,
        "meta_element_set_no": 999,
        "meta_rev_at_epoch": 85382,
        "meta_bstar": 0.00071868942,
        "meta_mean_motion_dot": 1.177e-05,
        "meta_mean_motion_ddot": 0,
        "tle_line1": "1 34050U 93036JM  25343.18510409  .00001177  00000+0  71869-3 0  9997",
        "tle_line2": "2 34050  74.0886  16.1501 0214581  81.3818 341.7611 13.96171206853826"
      },
      "geometry": {
        "type": "Point",
        "coordinates": [
          95.30708678716164,
          73.8416691158068
        ]
      }
    },
    {
      "type": "Feature",
      "properties": {
        "norad_id": 34053,
        "name": "COSMOS 2251 DEB",
        "group": "cosmos-2251-debris",
        "lat": -44.101943835068454,
        "lon": 83.51340474357012,
        "alt_km": 1390.9661695954128,
        "timestamp": "2025-12-09T14:52:26.556046+00:00",
        "meta_object_name": "COSMOS 2251 DEB",
        "meta_object_id": "1993-036JQ",
        "meta_epoch": "2025-12-09T03:05:17.272896",
        "meta_mean_motion": 13.49151886,
        "meta_eccentricity": 0.04220117,
        "meta_inclination": 73.8444,
        "meta_ra_of_asc_node": 247.9898,
        "meta_arg_of_pericenter": 37.141,
        "meta_mean_anomaly": 325.8111,
        "meta_ephemeris_type": 0,
        "meta_classification_type": "U",
        "meta_norad_cat_id": 34053,
        "meta_element_set_no": 999,
        "meta_rev_at_epoch": 82635,
        "meta_bstar": 0.0010966736,
        "meta_mean_motion_dot": 1.174e-05,
        "meta_mean_motion_ddot": 0,
        "tle_line1": "1 34053U 93036JQ  25343.12867214  .00001174  00000+0  10967-2 0  9991",
        "tle_line2": "2 34053  73.8444 247.9898 0422011  37.1410 325.8111 13.49151886826351"
      },
      "geometry": {
        "type": "Point",
        "coordinates": [
          83.51340474357012,
          -44.101943835068454
        ]
      }
    }
  ]
}